[{"COMMENT":"GENERATED VIA SPACETRACK.ORG API","ORIGINATOR":"18 SPCS","NORAD_CAT_ID":"43477","OBJECT_NAME":"GRACE-FO 2","OBJECT_TYPE":"PAYLOAD","CLASSIFICATION_TYPE":"U","INTLDES":"18047B","EPOCH":"2023-12-05 22:30:58","EPOCH_MICROSECONDS":"110912","MEAN_MOTION":"15.27521206","ECCENTRICITY":"0.0016785","INCLINATION":"88.9814","RA_OF_ASC_NODE":"325.789","ARG_OF_PERICENTER":"95.4693","MEAN_ANOMALY":"264.8471","EPHEMERIS_TYPE":"0","ELEMENT_SET_NO":"999","REV_AT_EPOCH":"30820","BSTAR":"0.00013762","MEAN_MOTION_DOT":"0.00003747","MEAN_MOTION_DDOT":"0","FILE":"4124334","TLE_LINE0":"0 GRACE-FO 2","TLE_LINE1":"1 43477U 18047B   23339.93817258  .00003747  00000-0  13762-3 0  9991","TLE_LINE2":"2 43477  88.9814 325.7890 0016785  95.4693 264.8471 15.27521206308208","OBJECT_ID":"2018-047B","OBJECT_NUMBER":"43477","SEMIMAJOR_AXIS":"6861.362","PERIOD":"94.270","APOGEE":"494.744","PERIGEE":"471.710","DECAYED":"0"},{"COMMENT":"GENERATED VIA SPACETRACK.ORG API","ORIGINATOR":"18 SPCS","NORAD_CAT_ID":"43477","OBJECT_NAME":"GRACE-FO 2","OBJECT_TYPE":"PAYLOAD","CLASSIFICATION_TYPE":"U","INTLDES":"18047B","EPOCH":"2023-12-06 14:14:19","EPOCH_MICROSECONDS":"890528","MEAN_MOTION":"15.27525347","ECCENTRICITY":"0.0016801","INCLINATION":"88.9814","RA_OF_ASC_NODE":"325.6993","ARG_OF_PERICENTER":"93.4171","MEAN_ANOMALY":"266.9001","EPHEMERIS_TYPE":"0","ELEMENT_SET_NO":"999","REV_AT_EPOCH":"30830","BSTAR":"0.00012772","MEAN_MOTION_DOT":"0.0000348","MEAN_MOTION_DDOT":"0","FILE":"4125534","TLE_LINE0":"0 GRACE-FO 2","TLE_LINE1":"1 43477U 18047B   23340.59328577  .00003480  00000-0  12772-3 0  9990","TLE_LINE2":"2 43477  88.9814 325.6993 0016801  93.4171 266.9001 15.27525347308302","OBJECT_ID":"2018-047B","OBJECT_NUMBER":"43477","SEMIMAJOR_AXIS":"6861.350","PERIOD":"94.270","APOGEE":"494.743","PERIGEE":"471.687","DECAYED":"0"},{"COMMENT":"GENERATED VIA SPACETRACK.ORG API","ORIGINATOR":"18 SPCS","NORAD_CAT_ID":"43477","OBJECT_NAME":"GRACE-FO 2","OBJECT_TYPE":"PAYLOAD","CLASSIFICATION_TYPE":"U","INTLDES":"18047B","EPOCH":"2023-12-06 22:06:00","EPOCH_MICROSECONDS":"725472","MEAN_MOTION":"15.27527846","ECCENTRICITY":"0.0016805","INCLINATION":"88.9813","RA_OF_ASC_NODE":"325.6545","ARG_OF_PERICENTER":"92.3582","MEAN_ANOMALY":"267.9591","EPHEMERIS_TYPE":"0","ELEMENT_SET_NO":"999","REV_AT_EPOCH":"30835","BSTAR":"0.00013083","MEAN_MOTION_DOT":"0.00003564","MEAN_MOTION_DDOT":"0","FILE":"4126527","TLE_LINE0":"0 GRACE-FO 2","TLE_LINE1":"1 43477U 18047B   23340.92084173  .00003564  00000-0  13083-3 0  9997","TLE_LINE2":"2 43477  88.9813 325.6545 0016805  92.3582 267.9591 15.27527846308358","OBJECT_ID":"2018-047B","OBJECT_NUMBER":"43477","SEMIMAJOR_AXIS":"6861.342","PERIOD":"94.270","APOGEE":"494.738","PERIGEE":"471.677","DECAYED":"0"},{"COMMENT":"GENERATED VIA SPACETRACK.ORG API","ORIGINATOR":"18 SPCS","NORAD_CAT_ID":"43477","OBJECT_NAME":"GRACE-FO 2","OBJECT_TYPE":"PAYLOAD","CLASSIFICATION_TYPE":"U","INTLDES":"18047B","EPOCH":"2023-12-07 02:49:01","EPOCH_MICROSECONDS":"200000","MEAN_MOTION":"15.2752918","ECCENTRICITY":"0.0016809","INCLINATION":"88.9813","RA_OF_ASC_NODE":"325.6275","ARG_OF_PERICENTER":"91.7737","MEAN_ANOMALY":"268.5438","EPHEMERIS_TYPE":"0","ELEMENT_SET_NO":"999","REV_AT_EPOCH":"30838","BSTAR":"0.00013159","MEAN_MOTION_DOT":"0.00003585","MEAN_MOTION_DDOT":"0","FILE":"4126014","TLE_LINE0":"0 GRACE-FO 2","TLE_LINE1":"1 43477U 18047B   23341.11737500  .00003585  00000-0  13159-3 0  9995","TLE_LINE2":"2 43477  88.9813 325.6275 0016809  91.7737 268.5438 15.27529180308380","OBJECT_ID":"2018-047B","OBJECT_NUMBER":"43477","SEMIMAJOR_AXIS":"6861.338","PERIOD":"94.270","APOGEE":"494.736","PERIGEE":"471.670","DECAYED":"0"},{"COMMENT":"GENERATED VIA SPACETRACK.ORG API","ORIGINATOR":"18 SPCS","NORAD_CAT_ID":"43477","OBJECT_NAME":"GRACE-FO 2","OBJECT_TYPE":"PAYLOAD","CLASSIFICATION_TYPE":"U","INTLDES":"18047B","EPOCH":"2023-12-07 13:49:22","EPOCH_MICROSECONDS":"284768","MEAN_MOTION":"15.27529903","ECCENTRICITY":"0.0016769","INCLINATION":"88.9812","RA_OF_ASC_NODE":"325.5647","ARG_OF_PERICENTER":"90.3014","MEAN_ANOMALY":"270.0157","EPHEMERIS_TYPE":"0","ELEMENT_SET_NO":"999","REV_AT_EPOCH":"30845","BSTAR":"0.000090208","MEAN_MOTION_DOT":"0.00002468","MEAN_MOTION_DDOT":"0","FILE":"4127218","TLE_LINE0":"0 GRACE-FO 2","TLE_LINE1":"1 43477U 18047B   23341.57595237  .00002468  00000-0  90208-4 0  9994","TLE_LINE2":"2 43477  88.9812 325.5647 0016769  90.3014 270.0157 15.27529903308456","OBJECT_ID":"2018-047B","OBJECT_NUMBER":"43477","SEMIMAJOR_AXIS":"6861.336","PERIOD":"94.270","APOGEE":"494.707","PERIGEE":"471.695","DECAYED":"0"},{"COMMENT":"GENERATED VIA SPACETRACK.ORG API","ORIGINATOR":"18 SPCS","NORAD_CAT_ID":"43477","OBJECT_NAME":"GRACE-FO 2","OBJECT_TYPE":"PAYLOAD","CLASSIFICATION_TYPE":"U","INTLDES":"18047B","EPOCH":"2023-12-08 03:58:23","EPOCH_MICROSECONDS":"596896","MEAN_MOTION":"15.27532456","ECCENTRICITY":"0.0016774","INCLINATION":"88.9811","RA_OF_ASC_NODE":"325.4838","ARG_OF_PERICENTER":"88.4766","MEAN_ANOMALY":"271.8405","EPHEMERIS_TYPE":"0","ELEMENT_SET_NO":"999","REV_AT_EPOCH":"30854","BSTAR":"0.00008219","MEAN_MOTION_DOT":"0.00002252","MEAN_MOTION_DDOT":"0","FILE":"4127804","TLE_LINE0":"0 GRACE-FO 2","TLE_LINE1":"1 43477U 18047B   23342.16555089  .00002252  00000-0  82190-4 0  9993","TLE_LINE2":"2 43477  88.9811 325.4838 0016774  88.4766 271.8405 15.27532456308546","OBJECT_ID":"2018-047B","OBJECT_NUMBER":"43477","SEMIMAJOR_AXIS":"6861.328","PERIOD":"94.270","APOGEE":"494.703","PERIGEE":"471.684","DECAYED":"0"},{"COMMENT":"GENERATED VIA SPACETRACK.ORG API","ORIGINATOR":"18 SPCS","NORAD_CAT_ID":"43477","OBJECT_NAME":"GRACE-FO 2","OBJECT_TYPE":"PAYLOAD","CLASSIFICATION_TYPE":"U","INTLDES":"18047B","EPOCH":"2023-12-08 13:24:24","EPOCH_MICROSECONDS":"409440","MEAN_MOTION":"15.27534672","ECCENTRICITY":"0.001677","INCLINATION":"88.981","RA_OF_ASC_NODE":"325.4299","ARG_OF_PERICENTER":"87.2375","MEAN_ANOMALY":"273.0793","EPHEMERIS_TYPE":"0","ELEMENT_SET_NO":"999","REV_AT_EPOCH":"30860","BSTAR":"0.00008362","MEAN_MOTION_DOT":"0.0000229","MEAN_MOTION_DDOT":"0","FILE":"4128726","TLE_LINE0":"0 GRACE-FO 2","TLE_LINE1":"1 43477U 18047B   23342.55861585  .00002290  00000-0  83620-4 0  9998","TLE_LINE2":"2 43477  88.9810 325.4299 0016770  87.2375 273.0793 15.27534672308608","OBJECT_ID":"2018-047B","OBJECT_NUMBER":"43477","SEMIMAJOR_AXIS":"6861.322","PERIOD":"94.270","APOGEE":"494.693","PERIGEE":"471.680","DECAYED":"0"},{"COMMENT":"GENERATED VIA SPACETRACK.ORG API","ORIGINATOR":"18 SPCS","NORAD_CAT_ID":"43477","OBJECT_NAME":"GRACE-FO 2","OBJECT_TYPE":"PAYLOAD","CLASSIFICATION_TYPE":"U","INTLDES":"18047B","EPOCH":"2023-12-08 22:50:25","EPOCH_MICROSECONDS":"183968","MEAN_MOTION":"15.27537302","ECCENTRICITY":"0.0016772","INCLINATION":"88.981","RA_OF_ASC_NODE":"325.3759","ARG_OF_PERICENTER":"85.9384","MEAN_ANOMALY":"274.3782","EPHEMERIS_TYPE":"0","ELEMENT_SET_NO":"999","REV_AT_EPOCH":"30866","BSTAR":"0.00010342","MEAN_MOTION_DOT":"0.00002825","MEAN_MOTION_DDOT":"0","FILE":"4129181","TLE_LINE0":"0 GRACE-FO 2","TLE_LINE1":"1 43477U 18047B   23342.95168037  .00002825  00000-0  10342-3 0  9998","TLE_LINE2":"2 43477  88.9810 325.3759 0016772  85.9384 274.3782 15.27537302308666","OBJECT_ID":"2018-047B","OBJECT_NUMBER":"43477","SEMIMAJOR_AXIS":"6861.314","PERIOD":"94.269","APOGEE":"494.687","PERIGEE":"471.671","DECAYED":"0"},{"COMMENT":"GENERATED VIA SPACETRACK.ORG API","ORIGINATOR":"18 SPCS","NORAD_CAT_ID":"43477","OBJECT_NAME":"GRACE-FO 2","OBJECT_TYPE":"PAYLOAD","CLASSIFICATION_TYPE":"U","INTLDES":"18047B","EPOCH":"2023-12-09 11:25:06","EPOCH_MICROSECONDS":"132288","MEAN_MOTION":"15.27540118","ECCENTRICITY":"0.0016764","INCLINATION":"88.981","RA_OF_ASC_NODE":"325.304","ARG_OF_PERICENTER":"84.3615","MEAN_ANOMALY":"275.9546","EPHEMERIS_TYPE":"0","ELEMENT_SET_NO":"999","REV_AT_EPOCH":"30874","BSTAR":"0.00010003","MEAN_MOTION_DOT":"0.00002734","MEAN_MOTION_DDOT":"0","FILE":"4129741","TLE_LINE0":"0 GRACE-FO 2","TLE_LINE1":"1 43477U 18047B   23343.47576542  .00002734  00000-0  10003-3 0  9993","TLE_LINE2":"2 43477  88.9810 325.3040 0016764  84.3615 275.9546 15.27540118308743","OBJECT_ID":"2018-047B","OBJECT_NUMBER":"43477","SEMIMAJOR_AXIS":"6861.306","PERIOD":"94.269","APOGEE":"494.673","PERIGEE":"471.668","DECAYED":"0"},{"COMMENT":"GENERATED VIA SPACETRACK.ORG API","ORIGINATOR":"18 SPCS","NORAD_CAT_ID":"43477","OBJECT_NAME":"GRACE-FO 2","OBJECT_TYPE":"PAYLOAD","CLASSIFICATION_TYPE":"U","INTLDES":"18047B","EPOCH":"2023-12-09 12:59:26","EPOCH_MICROSECONDS":"235168","MEAN_MOTION":"15.27540538","ECCENTRICITY":"0.0016763","INCLINATION":"88.981","RA_OF_ASC_NODE":"325.295","ARG_OF_PERICENTER":"84.1575","MEAN_ANOMALY":"276.1584","EPHEMERIS_TYPE":"0","ELEMENT_SET_NO":"999","REV_AT_EPOCH":"30875","BSTAR":"0.000099985","MEAN_MOTION_DOT":"0.00002733","MEAN_MOTION_DDOT":"0","FILE":"4130247","TLE_LINE0":"0 GRACE-FO 2","TLE_LINE1":"1 43477U 18047B   23343.54127587  .00002733  00000-0  99985-4 0  9998","TLE_LINE2":"2 43477  88.9810 325.2950 0016763  84.1575 276.1584 15.27540538308756","OBJECT_ID":"2018-047B","OBJECT_NUMBER":"43477","SEMIMAJOR_AXIS":"6861.304","PERIOD":"94.269","APOGEE":"494.671","PERIGEE":"471.668","DECAYED":"0"}]